[{"OBJECT_NAME":"STARLINK-30987","OBJECT_ID":"2023-186Q","EPOCH":"2026-03-09T00:44:57.627456","MEAN_MOTION":15.2757594,"ECCENTRICITY":0.00018442,"INCLINATION":43.0024,"RA_OF_ASC_NODE":67.517,"ARG_OF_PERICENTER":288.8768,"MEAN_ANOMALY":71.1883,"EPHEMERIS_TYPE":0,"CLASSIFICATION_TYPE":"U","NORAD_CAT_ID":58487,"ELEMENT_SET_NO":999,"REV_AT_EPOCH":12578,"BSTAR":-3.655461e-6,"MEAN_MOTION_DOT":-3.63e-6,"MEAN_MOTION_DDOT":0},{"OBJECT_NAME":"MESON-1","OBJECT_ID":"2024-043AK","EPOCH":"2026-03-09T21:36:16.481664","MEAN_MOTION":15.29893494,"ECCENTRICITY":0.00095452,"INCLINATION":97.5469,"RA_OF_ASC_NODE":205.2839,"ARG_OF_PERICENTER":227.1432,"MEAN_ANOMALY":132.9007,"EPHEMERIS_TYPE":0,"CLASSIFICATION_TYPE":"U","NORAD_CAT_ID":59131,"ELEMENT_SET_NO":999,"REV_AT_EPOCH":11189,"BSTAR":0.0002974823,"MEAN_MOTION_DOT":8.544e-5,"MEAN_MOTION_DDOT":0}]
